CCSDS_OMM_VERS,COMMENT,CREATION_DATE,ORIGINATOR,OBJECT_NAME,OBJECT_ID,CENTER_NAME,REF_FRAME,TIME_SYSTEM,MEAN_ELEMENT_THEORY,EPOCH,MEAN_MOTION,ECCENTRICITY,INCLINATION,RA_OF_ASC_NODE,ARG_OF_PERICENTER,MEAN_ANOMALY,EPHEMERIS_TYPE,CLASSIFICATION_TYPE,NORAD_CAT_ID,ELEMENT_SET_NO,REV_AT_EPOCH,BSTAR,MEAN_MOTION_DOT,MEAN_MOTION_DDOT,SEMIMAJOR_AXIS,PERIOD,APOAPSIS,PERIAPSIS,OBJECT_TYPE,RCS_SIZE,COUNTRY_CODE,LAUNCH_DATE,SITE,DECAY_DATE,FILE,GP_ID,TLE_LINE0,TLE_LINE1,TLE_LINE2
"2.0","GENERATED VIA SPACE-TRACK.ORG API","2020-08-29T20:57:07","18 SPCS","COSMOS 1818","1987-011A","EARTH","TEME","UTC","SGP4","2020-08-29T13:31:58.545120","14.31458080","0.00139830","65.0110","58.7276","282.7041","77.2480","0","U","17369","999","80572","0.00000913260000","-0.00000076","0.0000000000000","7164.998","100.596","796.882","776.844","PAYLOAD","LARGE","CIS","1987-02-01","TTMTR","","2810901","160352886","0 COSMOS 1818","1 17369U 87011A   20242.56387205 -.00000076 +00000-0 +91326-5 0  9999","2 17369 065.0110 058.7276 0013983 282.7041 077.2480 14.31458080805728"
"2.0","GENERATED VIA SPACE-TRACK.ORG API","2020-08-29T20:57:07","18 SPCS","IRIDIUM 136","2017-061H","EARTH","TEME","UTC","SGP4","2020-08-29T08:38:59.158752","14.34216603","0.00023590","86.4026","190.2508","94.3378","265.8088","0","U","42962","999","15128","0.00001624900000","0.00000065","0.0000000000000","7155.807","100.403","779.361","775.984","PAYLOAD","LARGE","US","2017-10-09","AFWTR","","2810901","160366330","0 IRIDIUM 136","1 42962U 17061H   20242.36040693 +.00000065 +00000-0 +16249-4 0  9996","2 42962 086.4026 190.2508 0002359 094.3378 265.8088 14.34216603151283"
"2.0","GENERATED VIA SPACE-TRACK.ORG API","2020-08-29T06:36:10","18 SPCS","COSMOS 1818","1987-011A","EARTH","TEME","UTC","SGP4","2020-08-29T00:07:08.720256","14.31458065","0.00139790","65.0109","60.2928","282.6505","77.3016","0","U","17369","999","80592","0.00000800140000","-0.00000079","0.0000000000000","7164.998","100.596","796.879","776.847","PAYLOAD","LARGE","CIS","1987-02-01","TTMTR","","2810525","160339483","0 COSMOS 1818","1 17369U 87011A   20242.00496204 -.00000079  00000-0  80014-5 0  9993","2 17369  65.0109  60.2928 0013979 282.6505  77.3016 14.31458065805928"
"2.0","GENERATED VIA SPACE-TRACK.ORG API","2020-08-29T01:11:23","18 SPCS","COSMOS 1818","1987-011A","EARTH","TEME","UTC","SGP4","2020-08-28T20:45:56.265120","14.31458044","0.00139780","65.0109","60.6841","282.6350","77.3171","0","U","17369","999","80562","0.00000630600000","-0.00000083","0.0000000000000","7164.998","100.596","796.878","776.848","PAYLOAD","LARGE","CIS","1987-02-01","TTMTR","","2810453","160321202","0 COSMOS 1818","1 17369U 87011A   20241.86523455 -.00000083 +00000-0 +63060-5 0  9992","2 17369 065.0109 060.6841 0013978 282.6350 077.3171 14.31458044805629"
"2.0","GENERATED VIA SPACE-TRACK.ORG API","2020-08-29T01:11:23","18 SPCS","IRIDIUM 136","2017-061H","EARTH","TEME","UTC","SGP4","2020-08-28T19:15:15.117120","14.34216555","0.00023470","86.4025","190.4837","94.5290","265.6174","0","U","42962","999","15120","0.00001686400000","0.00000067","0.0000000000000","7155.808","100.403","779.352","775.993","PAYLOAD","LARGE","US","2017-10-09","AFWTR","","2810453","160336276","0 IRIDIUM 136","1 42962U 17061H   20241.80225830 +.00000067 +00000-0 +16864-4 0  9997","2 42962 086.4025 190.4837 0002347 094.5290 265.6174 14.34216555151203"
"2.0","GENERATED VIA SPACE-TRACK.ORG API","2020-08-28T14:46:11","18 SPCS","IRIDIUM 136","2017-061H","EARTH","TEME","UTC","SGP4","2020-08-28T09:12:27.085248","14.34216525","0.00023370","86.4025","190.6583","94.6035","265.5428","0","U","42962","999","15114","0.00001786700000","0.00000070","0.0000000000000","7155.808","100.403","779.345","776.000","PAYLOAD","LARGE","US","2017-10-09","AFWTR","","2810118","160269589","0 IRIDIUM 136","1 42962U 17061H   20241.38364682  .00000070  00000-0  17867-4 0  9997","2 42962  86.4025 190.6583 0002337  94.6035 265.5428 14.34216525151141"
"2.0","GENERATED VIA SPACE-TRACK.ORG API","2020-08-28T22:14:54","18 SPCS","COSMOS 1818","1987-011A","EARTH","TEME","UTC","SGP4","2020-08-28T05:40:30.210528","14.31458053","0.00139610","65.0109","62.4449","282.6536","77.2987","0","U","17369","999","80553","0.00000431020000","-0.00000089","0.0000000000000","7164.998","100.596","796.866","776.860","PAYLOAD","LARGE","CIS","1987-02-01","TTMTR","","2810322","160278540","0 COSMOS 1818","1 17369U 87011A   20241.23646077 -.00000089 +00000-0 +43102-5 0  9990","2 17369 065.0109 062.4449 0013961 282.6536 077.2987 14.31458053805535"
"2.0","GENERATED VIA SPACE-TRACK.ORG API","2020-08-28T04:22:39","18 SPCS","COSMOS 1818","1987-011A","EARTH","TEME","UTC","SGP4","2020-08-27T21:17:29.069664","14.31458044","0.00139520","65.0108","63.4232","282.6037","77.3487","0","U","17369","999","80548","0.00000266160000","-0.00000093","0.0000000000000","7164.998","100.596","796.859","776.866","PAYLOAD","LARGE","CIS","1987-02-01","TTMTR","","2809818","160247654","0 COSMOS 1818","1 17369U 87011A   20240.88714201 -.00000093 +00000-0 +26616-5 0  9991","2 17369 065.0108 063.4232 0013952 282.6037 077.3487 14.31458044805481"
"2.0","GENERATED VIA SPACE-TRACK.ORG API","2020-08-28T04:22:39","18 SPCS","IRIDIUM 136","2017-061H","EARTH","TEME","UTC","SGP4","2020-08-27T19:48:43.048800","14.34216415","0.00023310","86.4024","190.8912","94.7717","265.3745","0","U","42962","999","15106","0.00001648800000","0.00000066","0.0000000000000","7155.808","100.403","779.341","776.005","PAYLOAD","LARGE","US","2017-10-09","AFWTR","","2809818","160259392","0 IRIDIUM 136","1 42962U 17061H   20240.82549825 +.00000066 +00000-0 +16488-4 0  9992","2 42962 086.4024 190.8912 0002331 094.7717 265.3745 14.34216415151069"
"2.0","GENERATED VIA SPACE-TRACK.ORG API","2020-08-27T20:46:10","18 SPCS","COSMOS 1818","1987-011A","EARTH","TEME","UTC","SGP4","2020-08-27T17:56:16.611072","14.31458056","0.00139500","65.0108","63.8145","282.5836","77.3688","0","U","17369","999","80574","0.00000200400000","-0.00000095","0.0000000000000","7164.998","100.596","796.858","776.868","PAYLOAD","LARGE","CIS","1987-02-01","TTMTR","","2809638","160239530","0 COSMOS 1818","1 17369U 87011A   20240.74741448 -.00000095  00000-0  20040-5 0  9996","2 17369  65.0108  63.8145 0013950 282.5836  77.3688 14.31458056805747"
"2.0","GENERATED VIA SPACE-TRACK.ORG API","2020-08-27T11:26:10","18 SPCS","IRIDIUM 136","2017-061H","EARTH","TEME","UTC","SGP4","2020-08-27T06:24:59.004576","14.34216362","0.00023240","86.4024","191.1241","94.9003","265.2458","0","U","42962","999","15098","0.00001801700000","0.00000070","0.0000000000000","7155.808","100.403","779.336","776.010","PAYLOAD","LARGE","US","2017-10-09","AFWTR","","2809458","160214920","0 IRIDIUM 136","1 42962U 17061H   20240.26734959  .00000070  00000-0  18017-4 0  9999","2 42962  86.4024 191.1241 0002324  94.9003 265.2458 14.34216362150981"
"2.0","GENERATED VIA SPACE-TRACK.ORG API","2020-08-27T18:37:06","18 SPCS","COSMOS 1818","1987-011A","EARTH","TEME","UTC","SGP4","2020-08-27T01:10:14.333664","14.31458050","0.00139280","65.0107","65.7709","282.5490","77.4037","0","U","17369","999","80536","0.00000015161000","-0.00000100","0.0000000000000","7164.998","100.596","796.842","776.883","PAYLOAD","LARGE","CIS","1987-02-01","TTMTR","","2809575","160220691","0 COSMOS 1818","1 17369U 87011A   20240.04877701 -.00000100 +00000-0 +15161-6 0  9997","2 17369 065.0107 065.7709 0013928 282.5490 077.4037 14.31458050805365"
"2.0","GENERATED VIA SPACE-TRACK.ORG API","2020-08-27T18:37:06","18 SPCS","IRIDIUM 136","2017-061H","EARTH","TEME","UTC","SGP4","2020-08-26T22:02:38.976288","14.34216311","0.00023200","86.4023","191.2696","94.9427","265.2033","0","U","42962","999","15093","0.00001668900000","0.00000067","0.0000000000000","7155.808","100.403","779.334","776.013","PAYLOAD","LARGE","US","2017-10-09","AFWTR","","2809575","160235364","0 IRIDIUM 136","1 42962U 17061H   20239.91850667 +.00000067 +00000-0 +16689-4 0  9993","2 42962 086.4023 191.2696 0002320 094.9427 265.2033 14.34216311150939"
"2.0","GENERATED VIA SPACE-TRACK.ORG API","2020-08-27T04:36:14","18 SPCS","COSMOS 1818","1987-011A","EARTH","TEME","UTC","SGP4","2020-08-26T21:49:01.880256","14.31458029","0.00139240","65.0107","66.1623","282.5288","77.4239","0","U","17369","999","80534","-0.00000069850000","-0.00000102","0.0000000000000","7164.998","100.596","796.839","776.886","PAYLOAD","LARGE","CIS","1987-02-01","TTMTR","","2809187","160193689","0 COSMOS 1818","1 17369U 87011A   20239.90904954 -.00000102 +00000-0 -69850-6 0  9998","2 17369 065.0107 066.1623 0013924 282.5288 077.4239 14.31458029805344"
"2.0","GENERATED VIA SPACE-TRACK.ORG API","2020-08-27T04:36:14","18 SPCS","IRIDIUM 136","2017-061H","EARTH","TEME","UTC","SGP4","2020-08-26T20:22:10.968384","14.34216332","0.00023160","86.4023","191.2987","94.9012","265.2448","0","U","42962","999","15092","0.00001839900000","0.00000071","0.0000000000000","7155.808","100.403","779.331","776.016","PAYLOAD","LARGE","US","2017-10-09","AFWTR","","2809187","160206928","0 IRIDIUM 136","1 42962U 17061H   20239.84873806 +.00000071 +00000-0 +18399-4 0  9990","2 42962 086.4023 191.2987 0002316 094.9012 265.2448 14.34216332150929"
"2.0","GENERATED VIA SPACE-TRACK.ORG API","2020-08-26T21:10:42","18 SPCS","COSMOS 1818","1987-011A","EARTH","TEME","UTC","SGP4","2020-08-26T11:45:24.515712","14.31458004","0.00139110","65.0107","67.3362","282.4758","77.4769","0","U","17369","999","80528","-0.00000286720000","-0.00000108","0.0000000000000","7164.998","100.596","796.830","776.896","PAYLOAD","LARGE","CIS","1987-02-01","TTMTR","","2809045","160171185","0 COSMOS 1818","1 17369U 87011A   20239.48986708 -.00000108 +00000-0 -28672-5 0  9990","2 17369 065.0107 067.3362 0013911 282.4758 077.4769 14.31458004805288"
